{
  "type": "FeatureCollection",
  "features": [
    {
      "type": "Feature",
      "properties": {
        "norad_id": 40938,
        "name": "BEIDOU-3S IGSO-2S (C56)",
        "group": "gnss",
        "lat": 31.763314614774043,
        "lon": -67.22054266200274,
        "alt_km": 35993.096082350974,
        "timestamp": "2025-12-24T07:45:06.443154+00:00",
        "meta_object_name": "BEIDOU-3S IGSO-2S (C56)",
        "meta_object_id": "2015-053A",
        "meta_epoch": "2025-12-23T17:00:29.513952",
        "meta_mean_motion": 1.00267867,
        "meta_eccentricity": 0.00606419,
        "meta_inclination": 49.4936,
        "meta_ra_of_asc_node": 260.877,
        "meta_arg_of_pericenter": 188.6586,
        "meta_mean_anomaly": 353.8857,
        "meta_ephemeris_type": 0,
        "meta_classification_type": "U",
        "meta_norad_cat_id": 40938,
        "meta_element_set_no": 999,
        "meta_rev_at_epoch": 3759,
        "meta_bstar": 0,
        "meta_mean_motion_dot": -1.09e-06,
        "meta_mean_motion_ddot": 0,
        "tle_line1": "1 40938U 15053A   25357.70867493 -.00000109  00000+0  00000+0 0  9993",
        "tle_line2": "2 40938  49.4936 260.8770 0060641 188.6586 353.8857  1.00267867 37590"
      },
      "geometry": {
        "type": "Point",
        "coordinates": [
          -67.22054266200274,
          31.763314614774043
        ]
      }
    },
    {
      "type": "Feature",
      "properties": {
        "norad_id": 41019,
        "name": "GPS BIIF-11 (PRN 10)",
        "group": "gnss",
        "lat": 26.733815609038565,
        "lon": 56.788679277391516,
        "alt_km": 20459.79075119345,
        "timestamp": "2025-12-24T07:45:06.443166+00:00",
        "meta_object_name": "GPS BIIF-11 (PRN 10)",
        "meta_object_id": "2015-062A",
        "meta_epoch": "2025-12-23T06:43:12.895968",
        "meta_mean_motion": 2.00567181,
        "meta_eccentricity": 0.01110751,
        "meta_inclination": 56.8398,
        "meta_ra_of_asc_node": 37.5947,
        "meta_arg_of_pericenter": 230.2304,
        "meta_mean_anomaly": 128.8517,
        "meta_ephemeris_type": 0,
        "meta_classification_type": "U",
        "meta_norad_cat_id": 41019,
        "meta_element_set_no": 999,
        "meta_rev_at_epoch": 7430,
        "meta_bstar": 0,
        "meta_mean_motion_dot": -4.8e-07,
        "meta_mean_motion_ddot": 0,
        "tle_line1": "1 41019U 15062A   25357.28001037 -.00000048  00000+0  00000+0 0  9993",
        "tle_line2": "2 41019  56.8398  37.5947 0111075 230.2304 128.8517  2.00567181 74306"
      },
      "geometry": {
        "type": "Point",
        "coordinates": [
          56.788679277391516,
          26.733815609038565
        ]
      }
    },
    {
      "type": "Feature",
      "properties": {
        "norad_id": 41028,
        "name": "GSAT-15 (GAGAN/PRN 139)",
        "group": "gnss",
        "lat": -0.008541023851454457,
        "lon": -57.093440602747854,
        "alt_km": 35781.585038260855,
        "timestamp": "2025-12-24T07:45:06.443180+00:00",
        "meta_object_name": "GSAT-15 (GAGAN/PRN 139)",
        "meta_object_id": "2015-065A",
        "meta_epoch": "2025-12-23T22:08:15.190656",
        "meta_mean_motion": 1.00271757,
        "meta_eccentricity": 0.00023574,
        "meta_inclination": 0.0203,
        "meta_ra_of_asc_node": 277.7756,
        "meta_arg_of_pericenter": 322.0396,
        "meta_mean_anomaly": 278.4655,
        "meta_ephemeris_type": 0,
        "meta_classification_type": "U",
        "meta_norad_cat_id": 41028,
        "meta_element_set_no": 999,
        "meta_rev_at_epoch": 3704,
        "meta_bstar": 0,
        "meta_mean_motion_dot": -2.37e-06,
        "meta_mean_motion_ddot": 0,
        "tle_line1": "1 41028U 15065A   25357.92239804 -.00000237  00000+0  00000+0 0  9992",
        "tle_line2": "2 41028   0.0203 277.7756 0002357 322.0396 278.4655  1.00271757 37046"
      },
      "geometry": {
        "type": "Point",
        "coordinates": [
          -57.093440602747854,
          -0.008541023851454457
        ]
      }
    },
    {
      "type": "Feature",
      "properties": {
        "norad_id": 41174,
        "name": "GSAT0209 (GALILEO 12)",
        "group": "gnss",
        "lat": 41.24315058540459,
        "lon": 142.73008347597585,
        "alt_km": 23214.602441994593,
        "timestamp": "2025-12-24T07:45:06.443203+00:00",
        "meta_object_name": "GSAT0209 (GALILEO 12)",
        "meta_object_id": "2015-079A",
        "meta_epoch": "2025-12-21T21:22:17.332896",
        "meta_mean_motion": 1.70474556,
        "meta_eccentricity": 0.00025231,
        "meta_inclination": 55.7178,
        "meta_ra_of_asc_node": 106.13,
        "meta_arg_of_pericenter": 342.7574,
        "meta_mean_anomaly": 17.2091,
        "meta_ephemeris_type": 0,
        "meta_classification_type": "U",
        "meta_norad_cat_id": 41174,
        "meta_element_set_no": 999,
        "meta_rev_at_epoch": 6175,
        "meta_bstar": 0,
        "meta_mean_motion_dot": 5e-08,
        "meta_mean_motion_ddot": 0,
        "tle_line1": "1 41174U 15079A   25355.89047839  .00000005  00000+0  00000+0 0  9990",
        "tle_line2": "2 41174  55.7178 106.1300 0002523 342.7574  17.2091  1.70474556 61755"
      },
      "geometry": {
        "type": "Point",
        "coordinates": [
          142.73008347597585,
          41.24315058540459
        ]
      }
    },
    {
      "type": "Feature",
      "properties": {
        "norad_id": 41175,
        "name": "GSAT0208 (GALILEO 11)",
        "group": "gnss",
        "lat": -54.9790834157794,
        "lon": 29.65103218954506,
        "alt_km": 23226.56005641042,
        "timestamp": "2025-12-24T07:45:06.443216+00:00",
        "meta_object_name": "GSAT0208 (GALILEO 11)",
        "meta_object_id": "2015-079B",
        "meta_epoch": "2025-12-23T06:48:42.697728",
        "meta_mean_motion": 1.7047421,
        "meta_eccentricity": 0.0001871,
        "meta_inclination": 55.7171,
        "meta_ra_of_asc_node": 106.0888,
        "meta_arg_of_pericenter": 351.9973,
        "meta_mean_anomaly": 7.984,
        "meta_ephemeris_type": 0,
        "meta_classification_type": "U",
        "meta_norad_cat_id": 41175,
        "meta_element_set_no": 999,
        "meta_rev_at_epoch": 6219,
        "meta_bstar": 0,
        "meta_mean_motion_dot": 1.1e-07,
        "meta_mean_motion_ddot": 0,
        "tle_line1": "1 41175U 15079B   25357.28382752  .00000011  00000+0  00000+0 0  9999",
        "tle_line2": "2 41175  55.7171 106.0888 0001871 351.9973   7.9840  1.70474210 62193"
      },
      "geometry": {
        "type": "Point",
        "coordinates": [
          29.65103218954506,
          -54.9790834157794
        ]
      }
    },
    {
      "type": "Feature",
      "properties": {
        "norad_id": 41241,
        "name": "IRNSS-1E",
        "group": "gnss",
        "lat": -32.194195659077124,
        "lon": -40.736503721264604,
        "alt_km": 35759.58026586416,
        "timestamp": "2025-12-24T07:45:06.443228+00:00",
        "meta_object_name": "IRNSS-1E",
        "meta_object_id": "2016-003A",
        "meta_epoch": "2025-12-23T15:49:14.018592",
        "meta_mean_motion": 1.0026902,
        "meta_eccentricity": 0.0021565,
        "meta_inclination": 32.8492,
        "meta_ra_of_asc_node": 62.2938,
        "meta_arg_of_pericenter": 188.8816,
        "meta_mean_anomaly": 190.2765,
        "meta_ephemeris_type": 0,
        "meta_classification_type": "U",
        "meta_norad_cat_id": 41241,
        "meta_element_set_no": 999,
        "meta_rev_at_epoch": 3632,
        "meta_bstar": 0,
        "meta_mean_motion_dot": -2.93e-06,
        "meta_mean_motion_ddot": 0,
        "tle_line1": "1 41241U 16003A   25357.65919003 -.00000293  00000+0  00000+0 0  9990",
        "tle_line2": "2 41241  32.8492  62.2938 0021565 188.8816 190.2765  1.00269020 36325"
      },
      "geometry": {
        "type": "Point",
        "coordinates": [
          -40.736503721264604,
          -32.194195659077124
        ]
      }
    },
    {
      "type": "Feature",
      "properties": {
        "norad_id": 41328,
        "name": "GPS BIIF-12 (PRN 32)",
        "group": "gnss",
        "lat": -21.63275930164641,
        "lon": 80.5449505268277,
        "alt_km": 20181.67292792883,
        "timestamp": "2025-12-24T07:45:06.443239+00:00",
        "meta_object_name": "GPS BIIF-12 (PRN 32)",
        "meta_object_id": "2016-007A",
        "meta_epoch": "2025-12-21T20:48:30.607488",
        "meta_mean_motion": 2.00560245,
        "meta_eccentricity": 0.00926349,
        "meta_inclination": 55.4111,
        "meta_ra_of_asc_node": 96.4948,
        "meta_arg_of_pericenter": 243.8067,
        "meta_mean_anomaly": 115.2397,
        "meta_ephemeris_type": 0,
        "meta_classification_type": "U",
        "meta_norad_cat_id": 41328,
        "meta_element_set_no": 999,
        "meta_rev_at_epoch": 7228,
        "meta_bstar": 0,
        "meta_mean_motion_dot": -3e-08,
        "meta_mean_motion_ddot": 0,
        "tle_line1": "1 41328U 16007A   25355.86702092 -.00000003  00000+0  00000+0 0  9998",
        "tle_line2": "2 41328  55.4111  96.4948 0092634 243.8067 115.2397  2.00560245 72282"
      },
      "geometry": {
        "type": "Point",
        "coordinates": [
          80.5449505268277,
          -21.63275930164641
        ]
      }
    }
  ]
}